STARLINK-1172
1 25074C 20006AG  21325.04273850 -.00005219  00000-0 -34975-3 0  3253
2 25074  53.0539 113.0491 0001497  71.5548 321.6547 15.06398070    15
